STARLINK-30494          
1 57970U 23151G   26068.36049035 -.00001272  00000+0 -35691-4 0  9993
2 57970  43.0027 192.4566 0001155 241.5536 118.5200 15.28417441137406
STARLINK-31099          
1 58781U 24011S   26068.13857074  .00000664  00000+0  34554-4 0  9994
2 58781  53.1619  16.3855 0000956 100.9975 259.1133 15.30196831120188
